HORYU-4                 
1 41340U 16012D   21244.51439972  .00001082  00000-0  73935-4 0  9997
2 41340  31.0057  41.9896 0013728 209.1855 150.8014 15.01988177304236
E-ST@R-II               
1 41459U 16025D   21244.84227000  .00005867  00000-0  28340-3 0  9999
2 41459  98.1542  25.6625 0159592 164.5791 196.0291 15.08482990293934
AAUSAT 4                
1 41460U 16025E   21244.38050824  .00009374  00000-0  42669-3 0  9995
2 41460  98.1528  29.4406 0146507 148.9886 211.9778 15.11773813294188
BEESAT-4                
1 41619U 16040W   21244.21054886  .00003417  00000-0  13578-3 0  9991
2 41619  97.2632 298.1696 0012120  68.2959 291.9569 15.25910969276562
CANX-7                  
1 41788U 16059F   21244.77060566  .00021895  00000-0  23468-2 0  9999
2 41788  98.2523 352.9340 0018989 301.7503  58.1919 14.88533884265210
RAVAN                   
1 41849U 16067B   21244.35545840  .00001423  00000-0  12202-3 0  9993
2 41849  97.9712   8.8635 0008812 197.2547 162.8377 14.99167250262667
CELTEE 1                
1 41850U 16067C   21244.32451938  .00000255  00000-0  27136-4 0  9991
2 41850  97.9626   5.0765 0008120 214.7101 145.3591 14.97523897262473
OPTICUBE 04             
1 41851U 16067D   21244.34575351  .00000844  00000-0  78341-4 0  9998
2 41851  97.9615   4.4296 0008070 213.5060 146.5651 14.97156356262448
AEROCUBE 8D             
1 41852U 16067E   21244.27874410  .00001138  00000-0  10343-3 0  9993
2 41852  97.9612   4.2493 0008810 214.3883 145.6769 14.97295526262417
AEROCUBE 8C             
1 41853U 16067F   21244.32037902  .00000274  00000-0  28923-4 0  9991
2 41853  97.9605   4.1510 0009185 219.7844 140.2704 14.97261125262419
PROMETHEUS 2-1          
1 41854U 16067G   21244.56845858  .00000956  00000-0  86596-4 0  9992
2 41854  97.9632   5.0834 0008976 213.7740 146.2911 14.97804165262485
PROMETHEUS 2-3          
1 41855U 16067H   21244.56503340  .00001281  00000-0  11424-3 0  9999
2 41855  97.9635   5.1374 0009176 213.4735 146.5908 14.97820538262484
INS-1B                  
1 41954U 17008G   21244.70961075  .00003346  00000-0  13052-3 0  9997
2 41954  97.3019 306.1360 0009008 171.0173 189.1229 15.26574268252647
BGUSAT                  
1 41999U 17008BD  21244.14111583  .00005689  00000-0  19434-3 0  9997
2 41999  97.3196 312.7704 0007643 171.2353 188.9023 15.30664929252280
DIDO-2                  
1 42000U 17008BE  21244.11985065  .00002219  00000-0  90075-4 0  9999
2 42000  97.3014 305.7032 0007722 192.6639 167.4407 15.25612593251923
PEASSS                  
1 42015U 17008BV  21244.69283029  .00003120  00000-0  11960-3 0  9996
2 42015  97.3059 308.9431 0005787 184.8599 175.2586 15.27236727252652
AL-FARABI 1             
1 42016U 17008BW  21244.41043873  .00003877  00000-0  14218-3 0  9996
2 42016  97.3111 310.6411 0005664 182.4527 177.6686 15.28556835252832
NAYIF-1 (EO-88)         
1 42017U 17008BX  21244.70272277  .00003994  00000-0  14612-3 0  9999
2 42017  97.3104 310.9349 0005778 181.0261 179.0968 15.28615983252901
UCLSAT                  
1 42765U 17036A   21244.11096588  .00003067  00000-0  12486-3 0  9992
2 42765  97.2435 291.2621 0008911 269.7530  90.2687 15.25200033233708
LITUANICASAT-2          
1 42768U 17036D   21244.44225423  .00005114  00000-0  19591-3 0  9992
2 42768  97.2514 292.6372 0011704 253.6567 106.3386 15.26906531233064
AALTO-1                 
1 42775U 17036L   21244.11851931  .00001842  00000-0  81357-4 0  9997
2 42775  97.2408 287.6602 0011673 268.0192  91.9708 15.22895978232719
URSA MAIOR              
1 42776U 17036M   21244.37011497  .00002018  00000-0  88142-4 0  9996
2 42776  97.2425 288.4134 0011418 265.8755  94.1177 15.23183581232777
COMPASS 2               
1 42777U 17036N   21244.12133874  .00004141  00000-0  16281-3 0  9997
2 42777  97.2497 292.3943 0009763 256.8050 103.2100 15.26164757232952
DIAMOND RED             
1 42783U 17036U   21244.67790325  .00002185  00000-0  92570-4 0  9996
2 42783  97.2439 290.5346 0009748 272.6035  87.4087 15.24143175232927
PEGASUS                 
1 42784U 17036V   21244.70326437  .00002798  00000-0  11567-3 0  9996
2 42784  97.2443 291.3179 0009522 269.7765  90.2382 15.24751545232974
DIAMOND GREEN           
1 42785U 17036W   21244.08562862  .00002382  00000-0  10070-3 0  9999
2 42785  97.2442 290.0137 0009630 275.7706  84.2434 15.24133195232905
DIAMOND BLUE            
1 42786U 17036X   21244.67555434  .00002383  00000-0  10078-3 0  9991
2 42786  97.2442 290.5764 0009556 273.7207  86.2938 15.24121150232918
NUDTSAT                 
1 42787U 17036Y   21244.60862175  .00004724  00000-0  18153-3 0  9991
2 42787  97.2467 293.8926 0008736 261.3499  98.6748 15.26866538232955
SUCHAI                  
1 42788U 17036Z   21244.13643632  .00003440  00000-0  13803-3 0  9996
2 42788  97.2454 291.8609 0008978 268.0128  92.0083 15.25605478233021
SKCUBE                  
1 42789U 17036AA  21244.44180359  .00003081  00000-0  12502-3 0  9999
2 42789  97.2447 291.8311 0008922 267.7523  92.2694 15.25313156232970
VZLUSAT-1               
1 42790U 17036AB  21244.27638772  .00004199  00000-0  16186-3 0  9992
2 42790  97.2479 293.5599 0008263 261.5167  98.5136 15.26828959233051
ROBUSTA-1B              
1 42792U 17036AD  21244.13604469  .00003395  00000-0  13643-3 0  9997
2 42792  97.2450 291.9452 0008485 268.8169  91.2097 15.25570085232968
CICERO 6                
1 42793U 17036AE  21244.18887689  .00002090  00000-0  88217-4 0  9991
2 42793  97.2420 290.6512 0008036 274.7871  85.2449 15.24332536232978
D-SAT                   
1 42794U 17036AF  21244.29662968  .00000625  00000-0  59000-4 0  9995
2 42794  97.4602 260.1530 0124566 333.1622  26.3187 14.91661491228367
CORVUS BC2              
1 42846U 17042X   21244.40158143  .00000296  00000-0  34025-4 0  9992
2 42846  97.4617 112.4946 0008098 240.5639 119.4773 14.92346860225162
CORVUS BC1              
1 42847U 17042Y   21244.56842793  .00000349  00000-0  39183-4 0  9990
2 42847  97.4621 112.9055 0007765 238.4869 121.5592 14.92444211225190
MIRATA                  
1 43015U 17073C   21244.47766025  .00003353  00000-0  25637-3 0  9991
2 43015  97.6952 145.8436 0250267  48.4774 313.7617 14.80963681204460
MAKERSAT 0              
1 43016U 17073D   21244.55198562  .00002294  00000-0  17824-3 0  9998
2 43016  97.6984 145.8956 0254249  50.7427 311.6047 14.80147209204439
AEROCUBE 7B (OCSD B)    
1 43042U 17071F   21243.81615130  .00013114  00000-0  23890-3 0  9991
2 43042  51.6371  57.0181 0003236 222.1097 137.9643 15.49815916210518
AEROCUBE 7C (OCSD C)    
1 43043U 17071G   21244.49632326  .00011846  00000-0  21838-3 0  9993
2 43043  51.6359  54.0554 0003387 228.8763 131.1933 15.49581561210587
CHEFSAT                 
1 43044U 17071H   21244.51759658  .00045363  00000-0  45647-3 0  9990
2 43044  51.6347  11.1333 0003017 287.6244  72.4421 15.64957517211160
ASGARDIA 1              
1 43049U 17071N   21244.50998817  .00010231  00000-0  19143-3 0  9994
2 43049  51.6379  53.5415 0001456 249.0318 111.0515 15.49327310210595
ISARA                   
1 43050U 17071P   21244.56745221  .00031367  00000-0  37657-3 0  9994
2 43050  51.6323  20.2214 0001671 300.4765  59.6063 15.60601164211042
PROPCUBE 2 (FAUNA)      
1 43052U 17071R   21244.68450019  .00012571  00000-0  22470-3 0  9990
2 43052  51.6363  48.6998 0001388 249.0952 110.9889 15.50402748210662
CORVUS BC3              
1 43118U 18004H   21244.43191146  .00002012  00000-0  84765-4 0  9991
2 43118  97.3984 316.0393 0008516 308.2400  51.8070 15.24474799202154
MICROMAS-2A             
1 43131U 18004W   21244.75861739  .00004775  00000-0  17784-3 0  9997
2 43131  97.4072 320.2077 0006651 297.6461  62.4102 15.27930020202410
SPACEBEE-4              
1 43139U 18004AE  21244.46666539  .00006703  00000-0  23026-3 0  9993
2 43139  97.4141 322.6119 0005739 294.3294  65.7347 15.30437021202517
SPACEBEE-3              
1 43140U 18004AF  21244.21640035  .00008837  00000-0  28443-3 0  9999
2 43140  97.4174 324.1019 0005165 288.0024  72.0654 15.32448794202574
SPACEBEE-2              
1 43141U 18004AG  21244.19204090  .00009418  00000-0  29633-3 0  9992
2 43141  97.4195 324.7458 0005066 285.0838  74.9844 15.33157085202608
SPACEBEE-1              
1 43142U 18004AH  21244.19538732  .00010293  00000-0  31501-3 0  9996
2 43142  97.4206 325.4283 0004936 281.1713  78.8975 15.34012548202636
CICERO 7                
1 43143U 18004AJ  21244.44904563  .00004306  00000-0  16156-3 0  9991
2 43143  97.4044 319.9030 0005221 313.0116  47.0685 15.27749275202389
GOMX-4B                 
1 43196U 18015E   21244.31976550  .00001010  00000-0  43195-4 0  9995
2 43196  97.4948  17.3646 0018119 358.9332   1.1864 15.25070986199075
GOMX-4A                 
1 43197U 18015F   21244.84511916  .00002115  00000-0  85665-4 0  9990
2 43197  97.4947  18.2112 0018297 358.0557 153.9914 15.25673841199183
AEROCUBE 12A            
1 43556U 18046C   21244.26631619  .00005037  00000-0  17094-3 0  9998
2 43556  51.6396 143.9759 0008246  78.0297 282.1609 15.32244190174906
AEROCUBE 12B            
1 43557U 18046D   21244.32723921  .00004320  00000-0  15130-3 0  9997
2 43557  51.6405 145.8412 0008390  76.4942 283.6973 15.31583807174836
SURFSAT                 
1 43614U 18070B   21244.51059222  .00007138  00000-0  16166-3 0  9995
2 43614  93.0356 337.7135 0016276  72.7133 287.5903 15.42984600166398
CP7 (DAVE)              
1 43615U 18070C   21244.28349989  .00006897  00000-0  15792-3 0  9997
2 43615  93.0359 337.5647 0016531  73.4726 286.8345 15.42656460166345
ELFIN-B                 
1 43616U 18070D   21244.34596577  .00011682  00000-0  23806-3 0  9995
2 43616  93.0311 337.8808 0015936  70.7851 289.5130 15.46080451166496
ELFIN-A                 
1 43617U 18070E   21244.28066203  .00011850  00000-0  23708-3 0  9995
2 43617  93.0359 338.7747 0015209  68.3144 291.9732 15.46629423166507
